[{"OBJECT_NAME":"STARLINK-11084 [DTC]","OBJECT_ID":"2024-088K","EPOCH":"2025-09-06T22:28:11.136000","MEAN_MOTION":15.69722754,"ECCENTRICITY":0.00010455,"INCLINATION":53.1594,"RA_OF_ASC_NODE":151.9633,"ARG_OF_PERICENTER":81.2177,"MEAN_ANOMALY":278.8959,"EPHEMERIS_TYPE":0,"CLASSIFICATION_TYPE":"U","NORAD_CAT_ID":59717,"ELEMENT_SET_NO":999,"REV_AT_EPOCH":7741,"BSTAR":-1.0561162e-5,"MEAN_MOTION_DOT":-1.868e-5,"MEAN_MOTION_DDOT":0},{"OBJECT_NAME":"STARLINK-11103 [DTC]","OBJECT_ID":"2024-088L","EPOCH":"2025-09-06T22:21:07.010496","MEAN_MOTION":15.69726351,"ECCENTRICITY":0.00010196,"INCLINATION":53.1597,"RA_OF_ASC_NODE":151.9283,"ARG_OF_PERICENTER":86.7579,"MEAN_ANOMALY":273.3555,"EPHEMERIS_TYPE":0,"CLASSIFICATION_TYPE":"U","NORAD_CAT_ID":59718,"ELEMENT_SET_NO":999,"REV_AT_EPOCH":7741,"BSTAR":-9.608618e-6,"MEAN_MOTION_DOT":-1.753e-5,"MEAN_MOTION_DDOT":0},{"OBJECT_NAME":"STARLINK-11096 [DTC]","OBJECT_ID":"2024-088M","EPOCH":"2025-09-06T22:00:04.252896","MEAN_MOTION":15.69729806,"ECCENTRICITY":4.435e-5,"INCLINATION":53.1587,"RA_OF_ASC_NODE":152.5666,"ARG_OF_PERICENTER":91.9991,"MEAN_ANOMALY":268.1078,"EPHEMERIS_TYPE":0,"CLASSIFICATION_TYPE":"U","NORAD_CAT_ID":59719,"ELEMENT_SET_NO":999,"REV_AT_EPOCH":7740,"BSTAR":-8.970168e-6,"MEAN_MOTION_DOT":-1.675e-5,"MEAN_MOTION_DDOT":0},{"OBJECT_NAME":"STARLINK-11095 [DTC]","OBJECT_ID":"2024-088N","EPOCH":"2025-09-06T22:14:02.915232","MEAN_MOTION":15.69727687,"ECCENTRICITY":7.71e-5,"INCLINATION":53.1593,"RA_OF_ASC_NODE":151.895,"ARG_OF_PERICENTER":86.2823,"MEAN_ANOMALY":273.8283,"EPHEMERIS_TYPE":0,"CLASSIFICATION_TYPE":"U","NORAD_CAT_ID":59720,"ELEMENT_SET_NO":999,"REV_AT_EPOCH":7741,"BSTAR":-4.293784e-6,"MEAN_MOTION_DOT":-1.109e-5,"MEAN_MOTION_DDOT":0},{"OBJECT_NAME":"STARLINK-31834","OBJECT_ID":"2024-088P","EPOCH":"2025-09-06T18:58:05.223936","MEAN_MOTION":15.30189106,"ECCENTRICITY":0.0001383,"INCLINATION":53.1601,"RA_OF_ASC_NODE":274.2958,"ARG_OF_PERICENTER":85.6391,"MEAN_ANOMALY":274.4768,"EPHEMERIS_TYPE":0,"CLASSIFICATION_TYPE":"U","NORAD_CAT_ID":59721,"ELEMENT_SET_NO":999,"REV_AT_EPOCH":7570,"BSTAR":4.6410449e-5,"MEAN_MOTION_DOT":1.015e-5,"MEAN_MOTION_DDOT":0},{"OBJECT_NAME":"STARLINK-31843","OBJECT_ID":"2024-088Q","EPOCH":"2025-09-06T19:13:16.749984","MEAN_MOTION":15.30197973,"ECCENTRICITY":0.00011409,"INCLINATION":53.1588,"RA_OF_ASC_NODE":274.3605,"ARG_OF_PERICENTER":91.1939,"MEAN_ANOMALY":268.9193,"EPHEMERIS_TYPE":0,"CLASSIFICATION_TYPE":"U","NORAD_CAT_ID":59722,"ELEMENT_SET_NO":999,"REV_AT_EPOCH":7552,"BSTAR":0.00016031729,"MEAN_MOTION_DOT":4.392e-5,"MEAN_MOTION_DDOT":0},{"OBJECT_NAME":"STARLINK-31766","OBJECT_ID":"2024-088R","EPOCH":"2025-09-06T18:42:53.445600","MEAN_MOTION":15.30194865,"ECCENTRICITY":0.00013656,"INCLINATION":53.1596,"RA_OF_ASC_NODE":274.2301,"ARG_OF_PERICENTER":83.7826,"MEAN_ANOMALY":276.333,"EPHEMERIS_TYPE":0,"CLASSIFICATION_TYPE":"U","NORAD_CAT_ID":59723,"ELEMENT_SET_NO":999,"REV_AT_EPOCH":7552,"BSTAR":6.3942252e-5,"MEAN_MOTION_DOT":1.535e-5,"MEAN_MOTION_DDOT":0},{"OBJECT_NAME":"STARLINK-31836","OBJECT_ID":"2024-088S","EPOCH":"2025-09-06T18:48:57.974976","MEAN_MOTION":15.30192904,"ECCENTRICITY":0.00010922,"INCLINATION":53.1592,"RA_OF_ASC_NODE":274.2556,"ARG_OF_PERICENTER":92.2095,"MEAN_ANOMALY":267.903,"EPHEMERIS_TYPE":0,"CLASSIFICATION_TYPE":"U","NORAD_CAT_ID":59724,"ELEMENT_SET_NO":999,"REV_AT_EPOCH":7552,"BSTAR":1.5006286e-5,"MEAN_MOTION_DOT":8.5e-7,"MEAN_MOTION_DDOT":0},{"OBJECT_NAME":"STARLINK-31820","OBJECT_ID":"2024-088T","EPOCH":"2025-09-06T19:02:37.447008","MEAN_MOTION":15.30211696,"ECCENTRICITY":0.00015219,"INCLINATION":53.1598,"RA_OF_ASC_NODE":274.3142,"ARG_OF_PERICENTER":78.9974,"MEAN_ANOMALY":281.1197,"EPHEMERIS_TYPE":0,"CLASSIFICATION_TYPE":"U","NORAD_CAT_ID":59725,"ELEMENT_SET_NO":999,"REV_AT_EPOCH":7552,"BSTAR":0.00011768032,"MEAN_MOTION_DOT":3.129e-5,"MEAN_MOTION_DDOT":0},{"OBJECT_NAME":"STARLINK-31642","OBJECT_ID":"2024-088U","EPOCH":"2025-09-06T19:08:43.065888","MEAN_MOTION":15.30196718,"ECCENTRICITY":0.00011972,"INCLINATION":53.1595,"RA_OF_ASC_NODE":274.3399,"ARG_OF_PERICENTER":84.3338,"MEAN_ANOMALY":275.7799,"EPHEMERIS_TYPE":0,"CLASSIFICATION_TYPE":"U","NORAD_CAT_ID":59726,"ELEMENT_SET_NO":999,"REV_AT_EPOCH":7552,"BSTAR":-1.556916e-6,"MEAN_MOTION_DOT":-4.05e-6,"MEAN_MOTION_DDOT":0},{"OBJECT_NAME":"STARLINK-31827","OBJECT_ID":"2024-088V","EPOCH":"2025-09-06T19:17:50.067744","MEAN_MOTION":15.30196909,"ECCENTRICITY":0.00014125,"INCLINATION":53.16,"RA_OF_ASC_NODE":274.3784,"ARG_OF_PERICENTER":90.4196,"MEAN_ANOMALY":269.6966,"EPHEMERIS_TYPE":0,"CLASSIFICATION_TYPE":"U","NORAD_CAT_ID":59727,"ELEMENT_SET_NO":999,"REV_AT_EPOCH":7564,"BSTAR":2.8748291e-5,"MEAN_MOTION_DOT":4.92e-6,"MEAN_MOTION_DDOT":0},{"OBJECT_NAME":"STARLINK-31472","OBJECT_ID":"2024-090A","EPOCH":"2025-09-06T01:26:05.448192","MEAN_MOTION":15.27583891,"ECCENTRICITY":3.32e-5,"INCLINATION":42.9989,"RA_OF_ASC_NODE":146.1665,"ARG_OF_PERICENTER":278.138,"MEAN_ANOMALY":81.9434,"EPHEMERIS_TYPE":0,"CLASSIFICATION_TYPE":"U","NORAD_CAT_ID":59730,"ELEMENT_SET_NO":999,"REV_AT_EPOCH":7520,"BSTAR":-2.7191964e-5,"MEAN_MOTION_DOT":-1.01e-5,"MEAN_MOTION_DDOT":0},{"OBJECT_NAME":"STARLINK-31817","OBJECT_ID":"2024-090B","EPOCH":"2025-09-06T10:25:06.114720","MEAN_MOTION":15.27604493,"ECCENTRICITY":0.00012924,"INCLINATION":43.004,"RA_OF_ASC_NODE":143.8203,"ARG_OF_PERICENTER":280.7438,"MEAN_ANOMALY":79.3268,"EPHEMERIS_TYPE":0,"CLASSIFICATION_TYPE":"U","NORAD_CAT_ID":59731,"ELEMENT_SET_NO":999,"REV_AT_EPOCH":7526,"BSTAR":0.00013331988,"MEAN_MOTION_DOT":3.411e-5,"MEAN_MOTION_DDOT":0},{"OBJECT_NAME":"STARLINK-31841","OBJECT_ID":"2024-090C","EPOCH":"2025-09-06T22:00:01.999584","MEAN_MOTION":15.39053667,"ECCENTRICITY":0.00146032,"INCLINATION":42.9965,"RA_OF_ASC_NODE":102.4282,"ARG_OF_PERICENTER":258.1027,"MEAN_ANOMALY":329.6773,"EPHEMERIS_TYPE":0,"CLASSIFICATION_TYPE":"U","NORAD_CAT_ID":59732,"ELEMENT_SET_NO":999,"REV_AT_EPOCH":587,"BSTAR":0.0053145807,"MEAN_MOTION_DOT":0.00216707,"MEAN_MOTION_DDOT":0},{"OBJECT_NAME":"STARLINK-31833","OBJECT_ID":"2024-090D","EPOCH":"2025-09-06T19:02:11.799168","MEAN_MOTION":15.27564628,"ECCENTRICITY":0.00011696,"INCLINATION":42.9997,"RA_OF_ASC_NODE":142.2078,"ARG_OF_PERICENTER":272.78,"MEAN_ANOMALY":87.2917,"EPHEMERIS_TYPE":0,"CLASSIFICATION_TYPE":"U","NORAD_CAT_ID":59733,"ELEMENT_SET_NO":999,"REV_AT_EPOCH":7531,"BSTAR":8.7677805e-5,"MEAN_MOTION_DOT":2.15e-5,"MEAN_MOTION_DDOT":0},{"OBJECT_NAME":"STARLINK-31849","OBJECT_ID":"2024-090E","EPOCH":"2025-09-06T09:22:00.089184","MEAN_MOTION":15.27557435,"ECCENTRICITY":7.31e-5,"INCLINATION":43.0052,"RA_OF_ASC_NODE":137.4267,"ARG_OF_PERICENTER":287.7301,"MEAN_ANOMALY":72.3471,"EPHEMERIS_TYPE":0,"CLASSIFICATION_TYPE":"U","NORAD_CAT_ID":59734,"ELEMENT_SET_NO":999,"REV_AT_EPOCH":7533,"BSTAR":-5.4394567e-5,"MEAN_MOTION_DOT":-1.757e-5,"MEAN_MOTION_DDOT":0}]
