STARLINK-11084 [DTC]    
1 59717U 24088K   25249.93624000 -.00001868  00000+0 -10561-4 0  9998
2 59717  53.1594 151.9633 0001045  81.2177 278.8959 15.69722754 77417
STARLINK-11103 [DTC]    
1 59718U 24088L   25249.93133114 -.00001753  00000+0 -96086-5 0  9990
2 59718  53.1597 151.9283 0001019  86.7579 273.3555 15.69726351 77418
STARLINK-11096 [DTC]    
1 59719U 24088M   25249.91671589 -.00001675  00000+0 -89702-5 0  9992
2 59719  53.1587 152.5666 0000443  91.9991 268.1078 15.69729806 77405
STARLINK-11095 [DTC]    
1 59720U 24088N   25249.92642263 -.00001109  00000+0 -42938-5 0  9994
2 59720  53.1593 151.8950 0000771  86.2823 273.8283 15.69727687 77414
STARLINK-31834          
1 59721U 24088P   25249.79033824  .00001015  00000+0  46410-4 0  9999
2 59721  53.1601 274.2958 0001383  85.6391 274.4768 15.30189106 75707
STARLINK-31843          
1 59722U 24088Q   25249.80088831  .00004392  00000+0  16032-3 0  9997
2 59722  53.1588 274.3605 0001140  91.1939 268.9193 15.30197973 75524
STARLINK-31766          
1 59723U 24088R   25249.77978525  .00001535  00000+0  63942-4 0  9991
2 59723  53.1596 274.2301 0001365  83.7826 276.3330 15.30194865 75520
STARLINK-31836          
1 59724U 24088S   25249.78400434  .00000085  00000+0  15006-4 0  9999
2 59724  53.1592 274.2556 0001092  92.2095 267.9030 15.30192904 75524
STARLINK-31820          
1 59725U 24088T   25249.79348897  .00003129  00000+0  11768-3 0  9997
2 59725  53.1598 274.3142 0001521  78.9974 281.1197 15.30211696 75529
STARLINK-31642          
1 59726U 24088U   25249.79772067 -.00000405  00000+0 -15569-5 0  9999
2 59726  53.1595 274.3399 0001197  84.3338 275.7799 15.30196718 75529
STARLINK-31827          
1 59727U 24088V   25249.80405171  .00000492  00000+0  28748-4 0  9997
2 59727  53.1600 274.3784 0001412  90.4196 269.6966 15.30196909 75648
STARLINK-31472          
1 59730U 24090A   25249.05978528 -.00001010  00000+0 -27192-4 0  9993
2 59730  42.9989 146.1665 0000332 278.1380  81.9434 15.27583891 75205
STARLINK-31817          
1 59731U 24090B   25249.43409855  .00003411  00000+0  13332-3 0  9993
2 59731  43.0040 143.8203 0001292 280.7438  79.3268 15.27604493 75261
STARLINK-31841          
1 59732U 24090C   25249.91668981  .00216707  00000+0  53146-2 0  9994
2 59732  42.9965 102.4282 0014603 258.1027 329.6773 15.39053667  5873
STARLINK-31833          
1 59733U 24090D   25249.79319212  .00002150  00000+0  87678-4 0  9995
2 59733  42.9997 142.2078 0001169 272.7800  87.2917 15.27564628 75312
STARLINK-31849          
1 59734U 24090E   25249.39027881 -.00001757  00000+0 -54395-4 0  9994
2 59734  43.0052 137.4267 0000731 287.7301  72.3471 15.27557435 75339
